{"type": "FeatureCollection", "features": [ {"type": "Feature", "properties": {"norad_id": 32316, "name": "FENGYUN 1C DEB", "group": "fengyun-1c-debris", "lat": 30.863387260313836, "lon": 6.965747796451336, "alt_km": 708.6295079703877, "timestamp": "2025-12-12T07:43:20.800236+00:00", "meta": {"OBJECT_NAME": "FENGYUN 1C DEB", "OBJECT_ID": "1999-025CXH", "EPOCH": "2025-12-10T07:40:43.362912", "MEAN_MOTION": 14.51806348, "ECCENTRICITY": 0.0026501, "INCLINATION": 99.5292, "RA_OF_ASC_NODE": 10.4593, "ARG_OF_PERICENTER": 336.7547, "MEAN_ANOMALY": 37.6624, "EPHEMERIS_TYPE": 0, "CLASSIFICATION_TYPE": "U", "NORAD_CAT_ID": 32316, "ELEMENT_SET_NO": 999, "REV_AT_EPOCH": 95742, "BSTAR": 0.0025556, "MEAN_MOTION_DOT": 0.00010287, "MEAN_MOTION_DDOT": 0}, "tle": {"line1": "1 32316U 99025CXH 25344.31994633  .00010287  00000+0  25556-2 0  9998", "line2": "2 32316  99.5292  10.4593 0026501 336.7547  37.6624 14.51806348957429"}}, "geometry": {"type": "Point", "coordinates": [6.965747796451336, 30.863387260313836]}}, {"type": "Feature", "properties": {"norad_id": 32320, "name": "FENGYUN 1C DEB", "group": "fengyun-1c-debris", "lat": -33.57564860274678, "lon": -149.69325786833258, "alt_km": 772.2900897231393, "timestamp": "2025-12-12T07:43:20.800246+00:00", "meta": {"OBJECT_NAME": "FENGYUN 1C DEB", "OBJECT_ID": "1999-025CXM", "EPOCH": "2025-12-10T20:46:03.089856", "MEAN_MOTION": 14.36126259, "ECCENTRICITY": 0.0056153, "INCLINATION": 100.3739, "RA_OF_ASC_NODE": 201.5727, "ARG_OF_PERICENTER": 53.0201, "MEAN_ANOMALY": 307.61, "EPHEMERIS_TYPE": 0, "CLASSIFICATION_TYPE": "U", "NORAD_CAT_ID": 32320, "ELEMENT_SET_NO": 999, "REV_AT_EPOCH": 62146, "BSTAR": 0.0011581, "MEAN_MOTION_DOT": 3.377e-05, "MEAN_MOTION_DDOT": 0}, "tle": {"line1": "1 32320U 99025CXM 25344.86531354  .00003377  00000+0  11581-2 0  9995", "line2": "2 32320 100.3739 201.5727 0056153  53.0201 307.6100 14.36126259621465"}}, "geometry": {"type": "Point", "coordinates": [-149.69325786833258, -33.57564860274678]}}, {"type": "Feature", "properties": {"norad_id": 32322, "name": "FENGYUN 1C DEB", "group": "fengyun-1c-debris", "lat": -32.99570138139994, "lon": 43.01739214625918, "alt_km": 1257.1760984771508, "timestamp": "2025-12-12T07:43:20.800257+00:00", "meta": {"OBJECT_NAME": "FENGYUN 1C DEB", "OBJECT_ID": "1999-025CXP", "EPOCH": "2025-12-10T11:30:19.459296", "MEAN_MOTION": 13.34129815, "ECCENTRICITY": 0.04190414, "INCLINATION": 98.3701, "RA_OF_ASC_NODE": 226.9905, "ARG_OF_PERICENTER": 103.3403, "MEAN_ANOMALY": 261.4794, "EPHEMERIS_TYPE": 0, "CLASSIFICATION_TYPE": "U", "NORAD_CAT_ID": 32322, "ELEMENT_SET_NO": 999, "REV_AT_EPOCH": 60349, "BSTAR": 0.0015395433, "MEAN_MOTION_DOT": 1.229e-05, "MEAN_MOTION_DDOT": 0}, "tle": {"line1": "1 32322U 99025CXP 25344.47939189  .00001229  00000+0  15395-2 0  9993", "line2": "2 32322  98.3701 226.9905 0419041 103.3403 261.4794 13.34129815603490"}}, "geometry": {"type": "Point", "coordinates": [43.01739214625918, -32.99570138139994]}}, {"type": "Feature", "properties": {"norad_id": 32323, "name": "FENGYUN 1C DEB", "group": "fengyun-1c-debris", "lat": -43.17234553740088, "lon": 137.67784018146767, "alt_km": 940.7772963590096, "timestamp": "2025-12-12T07:43:20.800267+00:00", "meta": {"OBJECT_NAME": "FENGYUN 1C DEB", "OBJECT_ID": "1999-025CXQ", "EPOCH": "2025-12-11T19:53:55.962816", "MEAN_MOTION": 13.9652774, "ECCENTRICITY": 0.01553738, "INCLINATION": 98.5708, "RA_OF_ASC_NODE": 129.0851, "ARG_OF_PERICENTER": 212.3019, "MEAN_ANOMALY": 146.8558, "EPHEMERIS_TYPE": 0, "CLASSIFICATION_TYPE": "U", "NORAD_CAT_ID": 32323, "ELEMENT_SET_NO": 999, "REV_AT_EPOCH": 60257, "BSTAR": 0.0054383938, "MEAN_MOTION_DOT": 8.293e-05, "MEAN_MOTION_DDOT": 0}, "tle": {"line1": "1 32323U 99025CXQ 25345.82911994  .00008293  00000+0  54384-2 0  9997", "line2": "2 32323  98.5708 129.0851 0155373 212.3019 146.8558 13.96527740602571"}}, "geometry": {"type": "Point", "coordinates": [137.67784018146767, -43.17234553740088]}}, {"type": "Feature", "properties": {"norad_id": 32324, "name": "FENGYUN 1C DEB", "group": "fengyun-1c-debris", "lat": 62.15823376051343, "lon": -73.3956741694002, "alt_km": 856.6137947315128, "timestamp": "2025-12-12T07:43:20.800277+00:00", "meta": {"OBJECT_NAME": "FENGYUN 1C DEB", "OBJECT_ID": "1999-025CXR", "EPOCH": "2025-12-11T05:36:55.669824", "MEAN_MOTION": 14.09142373, "ECCENTRICITY": 0.00500432, "INCLINATION": 99.5336, "RA_OF_ASC_NODE": 86.9016, "ARG_OF_PERICENTER": 28.2624, "MEAN_ANOMALY": 332.1243, "EPHEMERIS_TYPE": 0, "CLASSIFICATION_TYPE": "U", "NORAD_CAT_ID": 32324, "ELEMENT_SET_NO": 999, "REV_AT_EPOCH": 63977, "BSTAR": 0.00067335972, "MEAN_MOTION_DOT": 1.134e-05, "MEAN_MOTION_DDOT": 0}, "tle": {"line1": "1 32324U 99025CXR 25345.23397766  .00001134  00000+0  67336-3 0  9997", "line2": "2 32324  99.5336  86.9016 0050043  28.2624 332.1243 14.09142373639771"}}, "geometry": {"type": "Point", "coordinates": [-73.3956741694002, 62.15823376051343]}}, {"type": "Feature", "properties": {"norad_id": 32326, "name": "FENGYUN 1C DEB", "group": "fengyun-1c-debris", "lat": 58.65748292877966, "lon": -98.45008288509084, "alt_km": 939.4826416052083, "timestamp": "2025-12-12T07:43:20.800287+00:00", "meta": {"OBJECT_NAME": "FENGYUN 1C DEB", "OBJECT_ID": "1999-025CXT", "EPOCH": "2025-11-30T02:32:37.979232", "MEAN_MOTION": 13.69261307, "ECCENTRICITY": 0.03856265, "INCLINATION": 98.486, "RA_OF_ASC_NODE": 264.9459, "ARG_OF_PERICENTER": 173.0082, "MEAN_ANOMALY": 187.6669, "EPHEMERIS_TYPE": 0, "CLASSIFICATION_TYPE": "U", "NORAD_CAT_ID": 32326, "ELEMENT_SET_NO": 999, "REV_AT_EPOCH": 63009, "BSTAR": 0.00044957354, "MEAN_MOTION_DOT": 6.22e-06, "MEAN_MOTION_DDOT": 0}, "tle": {"line1": "1 32326U 99025CXT 25334.10599513  .00000622  00000+0  44957-3 0  9992", "line2": "2 32326  98.4860 264.9459 0385626 173.0082 187.6669 13.69261307630092"}}, "geometry": {"type": "Point", "coordinates": [-98.45008288509084, 58.65748292877966]}}, {"type": "Feature", "properties": {"norad_id": 32332, "name": "FENGYUN 1C DEB", "group": "fengyun-1c-debris", "lat": 62.72749864203823, "lon": -121.44714806752073, "alt_km": 1094.1361012458383, "timestamp": "2025-12-12T07:43:20.800298+00:00", "meta": {"OBJECT_NAME": "FENGYUN 1C DEB", "OBJECT_ID": "1999-025CXZ", "EPOCH": "2025-12-11T22:34:14.489472", "MEAN_MOTION": 13.97127144, "ECCENTRICITY": 0.02849762, "INCLINATION": 99.1325, "RA_OF_ASC_NODE": 39.9925, "ARG_OF_PERICENTER": 315.0226, "MEAN_ANOMALY": 42.8168, "EPHEMERIS_TYPE": 0, "CLASSIFICATION_TYPE": "U", "NORAD_CAT_ID": 32332, "ELEMENT_SET_NO": 999, "REV_AT_EPOCH": 93025, "BSTAR": 0.0022707216, "MEAN_MOTION_DOT": 4.432e-05, "MEAN_MOTION_DDOT": 0}, "tle": {"line1": "1 32332U 99025CXZ 25345.94044548  .00004432  00000+0  22707-2 0  9997", "line2": "2 32332  99.1325  39.9925 0284976 315.0226  42.8168 13.97127144930253"}}, "geometry": {"type": "Point", "coordinates": [-121.44714806752073, 62.72749864203823]}}, {"type": "Feature", "properties": {"norad_id": 32334, "name": "FENGYUN 1C DEB", "group": "fengyun-1c-debris", "lat": -58.12309472329159, "lon": 55.922168327154864, "alt_km": 849.358999323521, "timestamp": "2025-12-12T07:43:20.800310+00:00", "meta": {"OBJECT_NAME": "FENGYUN 1C DEB", "OBJECT_ID": "1999-025CYB", "EPOCH": "2025-12-10T14:53:08.742912", "MEAN_MOTION": 14.01639218, "ECCENTRICITY": 0.006636, "INCLINATION": 99.2529, "RA_OF_ASC_NODE": 39.0008, "ARG_OF_PERICENTER": 287.0109, "MEAN_ANOMALY": 72.3791, "EPHEMERIS_TYPE": 0, "CLASSIFICATION_TYPE": "U", "NORAD_CAT_ID": 32334, "ELEMENT_SET_NO": 999, "REV_AT_EPOCH": 93910, "BSTAR": 0.0004821, "MEAN_MOTION_DOT": 6.98e-06, "MEAN_MOTION_DDOT": 0}, "tle": {"line1": "1 32334U 99025CYB 25344.62024008  .00000698  00000+0  48210-3 0  9990", "line2": "2 32334  99.2529  39.0008 0066360 287.0109  72.3791 14.01639218939107"}}, "geometry": {"type": "Point", "coordinates": [55.922168327154864, -58.12309472329159]}}, {"type": "Feature", "properties": {"norad_id": 32340, "name": "FENGYUN 1C DEB", "group": "fengyun-1c-debris", "lat": 74.97654977482671, "lon": -151.8115086942195, "alt_km": 662.5707784464294, "timestamp": "2025-12-12T07:43:20.800320+00:00", "meta": {"OBJECT_NAME": "FENGYUN 1C DEB", "OBJECT_ID": "1999-025CYH", "EPOCH": "2025-12-10T17:48:09.538848", "MEAN_MOTION": 14.74494196, "ECCENTRICITY": 0.00340453, "INCLINATION": 98.9824, "RA_OF_ASC_NODE": 350.327, "ARG_OF_PERICENTER": 300.429, "MEAN_ANOMALY": 59.3553, "EPHEMERIS_TYPE": 0, "CLASSIFICATION_TYPE": "U", "NORAD_CAT_ID": 32340, "ELEMENT_SET_NO": 999, "REV_AT_EPOCH": 97167, "BSTAR": 0.0040015959, "MEAN_MOTION_DOT": 0.0002689, "MEAN_MOTION_DDOT": 0}, "tle": {"line1": "1 32340U 99025CYH 25344.74177707  .00026890  00000+0  40016-2 0  9992", "line2": "2 32340  98.9824 350.3270 0034045 300.4290  59.3553 14.74494196971677"}}, "geometry": {"type": "Point", "coordinates": [-151.8115086942195, 74.97654977482671]}}, {"type": "Feature", "properties": {"norad_id": 32342, "name": "FENGYUN 1C DEB", "group": "fengyun-1c-debris", "lat": -77.51973659943218, "lon": 38.52466863556479, "alt_km": 853.5408689371998, "timestamp": "2025-12-12T07:43:20.800330+00:00", "meta": {"OBJECT_NAME": "FENGYUN 1C DEB", "OBJECT_ID": "1999-025CYK", "EPOCH": "2025-12-11T23:52:12.709056", "MEAN_MOTION": 14.13398284, "ECCENTRICITY": 0.00075423, "INCLINATION": 98.6704, "RA_OF_ASC_NODE": 354.6242, "ARG_OF_PERICENTER": 353.6058, "MEAN_ANOMALY": 61.6836, "EPHEMERIS_TYPE": 0, "CLASSIFICATION_TYPE": "U", "NORAD_CAT_ID": 32342, "ELEMENT_SET_NO": 999, "REV_AT_EPOCH": 93707, "BSTAR": 0.00015440815, "MEAN_MOTION_DOT": 2.47e-06, "MEAN_MOTION_DDOT": 0}, "tle": {"line1": "1 32342U 99025CYK 25345.99459154  .00000247  00000+0  15441-3 0  9994", "line2": "2 32342  98.6704 354.6242 0007542 353.6058  61.6836 14.13398284937073"}}, "geometry": {"type": "Point", "coordinates": [38.52466863556479, -77.51973659943218]}}]}